[{"OBJECT_NAME":"TRANSPORTER-11 OBJECT A","OBJECT_ID":"2024-149A","EPOCH":"2026-03-09T17:54:54.302112","MEAN_MOTION":15.31141332,"ECCENTRICITY":0.00031096,"INCLINATION":97.378,"RA_OF_ASC_NODE":149.0949,"ARG_OF_PERICENTER":191.001,"MEAN_ANOMALY":169.1164,"EPHEMERIS_TYPE":0,"CLASSIFICATION_TYPE":"U","NORAD_CAT_ID":60468,"ELEMENT_SET_NO":999,"REV_AT_EPOCH":8683,"BSTAR":0.00036053677,"MEAN_MOTION_DOT":0.00010774,"MEAN_MOTION_DDOT":0},{"OBJECT_NAME":"STARLINK-35103","OBJECT_ID":"2025-210M","EPOCH":"2026-03-09T21:22:17.484096","MEAN_MOTION":15.30191679,"ECCENTRICITY":0.00012047,"INCLINATION":53.158,"RA_OF_ASC_NODE":306.02,"ARG_OF_PERICENTER":88.3007,"MEAN_ANOMALY":271.8132,"EPHEMERIS_TYPE":0,"CLASSIFICATION_TYPE":"U","NORAD_CAT_ID":65633,"ELEMENT_SET_NO":999,"REV_AT_EPOCH":2776,"BSTAR":0.00058452266,"MEAN_MOTION_DOT":0.00016988,"MEAN_MOTION_DDOT":0}]
